[{"OBJECT_NAME":"FOX-1A (AO-85)","OBJECT_ID":"2015-058D","EPOCH":"2026-03-09T22:16:13.069920","MEAN_MOTION":14.90358802,"ECCENTRICITY":0.01288837,"INCLINATION":64.7749,"RA_OF_ASC_NODE":227.3018,"ARG_OF_PERICENTER":95.808,"MEAN_ANOMALY":265.7742,"EPHEMERIS_TYPE":0,"CLASSIFICATION_TYPE":"U","NORAD_CAT_ID":40967,"ELEMENT_SET_NO":999,"REV_AT_EPOCH":9877,"BSTAR":0.00043144585,"MEAN_MOTION_DOT":4.759e-5,"MEAN_MOTION_DDOT":0},{"OBJECT_NAME":"FREGAT DEB","OBJECT_ID":"2014-037K","EPOCH":"2026-03-09T22:22:09.559776","MEAN_MOTION":14.55537308,"ECCENTRICITY":0.01310642,"INCLINATION":98.0597,"RA_OF_ASC_NODE":50.1744,"ARG_OF_PERICENTER":15.7563,"MEAN_ANOMALY":344.7654,"EPHEMERIS_TYPE":0,"CLASSIFICATION_TYPE":"U","NORAD_CAT_ID":40078,"ELEMENT_SET_NO":999,"REV_AT_EPOCH":61868,"BSTAR":0.0002702988,"MEAN_MOTION_DOT":1.272e-5,"MEAN_MOTION_DDOT":0}]
